STARLINK-5051           
1 53916C 22119AG  26081.55395833 -.00022601  00000+0 -14187-2 0   814
2 53916  53.2150 236.0224 0001384  91.4934 244.9594 15.08811813    11
STARLINK-5036           
1 53917C 22119AH  26081.58798611  .00324360  00000+0  19178-1 0   818
2 53917  53.2169 256.2261 0001471  71.1204 227.5464 15.10813907    11
STARLINK-5012           
1 53918C 22119AJ  26081.61854167 -.00028181  00000+0 -17678-2 0   810
2 53918  53.2153 255.9876 0001441  92.8027  64.4278 15.08839306    12
STARLINK-5023           
1 53919C 22119AK  26081.65187500 -.00051203  00000+0 -32101-2 0   814
2 53919  53.2152 255.7994 0001264  93.4343 265.0150 15.08872951    13
STARLINK-5025           
1 53920C 22119AL  26081.51506944  .00003091  00000+0  19371-3 0   813
2 53920  53.2147 256.6101 0001341  98.3212 131.2808 15.08859566    15
STARLINK-5002           
1 53922C 22119AN  26081.59701389 -.00042299  00000+0 -26508-2 0   817
2 53922  53.2161 255.9272 0001316  93.1997  27.1120 15.08882311    13
STARLINK-5004           
1 53923C 22119AP  26081.54354167 -.00008397  00000+0 -52665-3 0   816
2 53923  53.2158 256.2445 0001384  94.0484  55.6382 15.08836728    19
STARLINK-5001           
1 53924C 22119AQ  26081.52479167 -.00006688  00000+0 -41932-3 0   819
2 53924  53.2148 251.4045 0001342  96.1542 279.0749 15.08845966    17
STARLINK-5011           
1 53925C 22119AR  26081.51784722  .00003959  00000+0  24813-3 0   810
2 53925  53.2160 256.1328 0001565  89.2194  40.9004 15.08855924    15
STARLINK-5014           
1 53926C 22119AS  26081.54423611  .00121770  00000+0  70661-2 0   814
2 53926  53.2168 251.1712 0001094  85.0108 110.1508 15.11590896    19
STARLINK-5009           
1 53928C 22119AU  26081.56229167 -.00020752  00000+0 -13010-2 0   813
2 53928  53.2151 246.2288 0001380  90.4327 136.0770 15.08857245    15
STARLINK-5018           
1 53929C 22119AV  26081.63798611 -.00027923  00000+0 -17515-2 0   818
2 53929  53.2163 256.3682 0001210  93.8707 283.5381 15.08841819    16
STARLINK-5010           
1 53930C 22119AW  26081.51020833  .00424310  00000+0  22000-1 0   814
2 53930  53.2183 246.0857 0000987  87.4988  51.1250 15.15447523    16
STARLINK-4772           
1 53932C 22119AY  26081.62618056 -.00027149  00000+0 -17028-2 0   814
2 53932  53.2161 241.1381 0001339  89.1082  32.0205 15.08844674    16
STARLINK-4782           
1 53933C 22119AZ  26081.49354167  .00002244  00000+0  14073-3 0   815
2 53933  53.2149 246.4977 0001386  89.1630 143.7562 15.08830102    10
STARLINK-4775           
1 53934C 22119BA  26081.54006944 -.00019886  00000+0 -12474-2 0   813
2 53934  53.2164 241.4813 0001339  98.5783 294.5798 15.08837037    13
STARLINK-5000           
1 53935C 22119BB  26081.55256944  .00399890  00000+0  18576-1 0   814
2 53935  53.2177 230.8196 0001145  77.1188 345.4333 15.19286709    18
STARLINK-4791           
1 53936C 22119BC  26081.48104167  .00002191  00000+0  13745-3 0   816
2 53936  53.2149 241.4310 0001423  90.7686 141.8041 15.08827953    11
STARLINK-4633           
1 53964C 22125A   26081.50395833 -.00009546  00000+0 -59906-3 0   811
2 53964  53.2145 166.7515 0001062  62.3722 326.9429 15.08816646    12
STARLINK-4578           
1 53965C 22125B   26081.53659722  .00836960  00000+0  37610-2 0   818
2 53965  53.2176 153.6625 0002707  27.1694 286.0624 15.82977388    14
STARLINK-4635           
1 53966C 22125C   26081.61159722  .00040569  00000+0  25446-2 0   819
2 53966  53.2147 166.1881 0001539  77.9510 216.4310 15.08808806    13
STARLINK-4634           
1 53967C 22125D   26081.64631944  .00052874  00000+0  33181-2 0   811
2 53967  53.2145 165.9936 0001432  82.6853  60.4020 15.08784962    16
STARLINK-4629           
1 53968C 22125E   26081.61229167  .00035119  00000+0  22030-2 0   813
2 53968  53.2147 166.0291 0001507  83.7503 294.5048 15.08807962    18
STARLINK-4468           
1 53969C 22125F   26081.59701389  .00033691  00000+0  21135-2 0   810
2 53969  53.2144 166.1752 0001528  81.3882 173.7836 15.08806911    12
STARLINK-4567           
1 53970C 22125G   26081.53034722  .00010719  00000+0  67252-3 0   813
2 53970  53.2147 161.5188 0001504  71.6886 168.6387 15.08812413    17
STARLINK-5156           
1 53973C 22125K   26081.60048611  .00031237  00000+0  19597-2 0   812
2 53973  53.2151 166.0435 0001314  81.3647 252.7605 15.08805777    15
STARLINK-5159           
1 53974C 22125L   26081.65743056  .00046259  00000+0  29018-2 0   812
2 53974  53.2140 145.5111 0001304  74.7494  19.0168 15.08802549    14
STARLINK-5137           
1 53975C 22125M   26081.55812500  .00010026  00000+0  62889-3 0   810
2 53975  53.2155 160.9306 0001250  78.6464 192.9727 15.08824349    12
STARLINK-5134           
1 53976C 22125N   26081.62548611  .00049122  00000+0  30808-2 0   812
2 53976  53.2141 146.1709 0001237  82.3727 297.4818 15.08807438    12
STARLINK-5094           
1 53977C 22125P   26081.63590278  .00052387  00000+0  32871-2 0   819
2 53977  53.2151 161.1171 0001371  83.9250 330.0004 15.08789622    16
STARLINK-5148           
1 53978C 22125Q   26081.54701389  .00010161  00000+0  63759-3 0   811
2 53978  53.2144 161.3184 0001448  83.0606 307.9185 15.08808690    16
STARLINK-5123           
1 53979C 22125R   26081.55187500  .00014415  00000+0  90429-3 0   816
2 53979  53.2147 161.3737 0001409  79.5652 297.7757 15.08815314    14
STARLINK-5133           
1 53980C 22125S   26081.63937500  .00051133  00000+0  32078-2 0   813
2 53980  53.2150 160.7124 0001384  84.4941 188.5782 15.08797338    11
STARLINK-5149           
1 53981C 22125T   26081.54770833  .00029172  00000+0  18300-2 0   818
2 53981  53.2152 146.1761 0001393  89.0918  48.2721 15.08810740    12
STARLINK-5120           
1 53982C 22125U   26081.65673611  .00057675  00000+0  36174-2 0   815
2 53982  53.2153 155.9484 0001303  75.0045 139.7251 15.08801933    19
STARLINK-5142           
1 53984C 22125W   26081.57826389  .00026795  00000+0  16812-2 0   816
2 53984  53.2153 156.4184 0001383  87.2437   0.9059 15.08803895    16
STARLINK-5147           
1 53985C 22125X   26081.51645833  .00002902  00000+0  18213-3 0   816
2 53985  53.2154 156.7747 0001582  85.2224 346.9834 15.08809789    11
STARLINK-5119           
1 53986C 22125Y   26081.56923611  .00041955  00000+0  26313-2 0   815
2 53986  53.2147 145.9849 0001412  80.1466 214.2850 15.08811384    10
STARLINK-5113           
1 53988C 22125AA  26081.51576389  .00001425  00000+0  89437-4 0   814
2 53988  53.2152 156.6594 0001457  85.4134  43.0998 15.08812126    19
STARLINK-5118           
1 53991C 22125AD  26081.54354167  .00024455  00000+0  15331-2 0   817
2 53991  53.2151 146.3525 0001183  91.1452 263.4148 15.08834731    16
STARLINK-5108           
1 53992C 22125AE  26081.53381944  .00015554  00000+0  97587-3 0   814
2 53992  53.2153 156.4606 0001483  85.7220 201.0052 15.08810077    15
STARLINK-5121           
1 53993C 22125AF  26081.55743056  .00030430  00000+0  19092-2 0   817
2 53993  53.2140 151.1100 0001231  77.6466 105.0602 15.08804628    15
STARLINK-5125           
1 53994C 22125AG  26081.54909722 -.00039555  00000+0 -24804-2 0   817
2 53994  53.2143 156.2713 0001333  81.4610 348.4396 15.08858700    15
STARLINK-5097           
1 53995C 22125AH  26081.59006944  .00027165  00000+0  17037-2 0   819
2 53995  53.2149 156.1713 0001376  83.5310 168.9642 15.08818475    12
STARLINK-5131           
1 53996C 22125AJ  26081.52687500 -.00033530  00000+0 -21023-2 0   811
2 53996  53.2143 156.3334 0001090  95.2526 233.8061 15.08860715    11
STARLINK-5130           
1 53997C 22125AK  26081.54631944  .00030865  00000+0  19369-2 0   811
2 53997  53.2141 146.6340 0001469  82.0122 167.4771 15.08796127    10
STARLINK-5128           
1 53998C 22125AL  26081.60534722  .00026848  00000+0  16833-2 0   814
2 53998  53.2144 155.9032 0001123  82.0286 353.5793 15.08831499    17
STARLINK-5079           
1 53999C 22125AM  26081.56159722  .00023842  00000+0  14957-2 0   819
2 53999  53.2146 156.2549 0001316  81.0959  36.6396 15.08810678    11
STARLINK-5088           
1 54000C 22125AN  26081.55673611  .00036886  00000+0  23145-2 0   811
2 54000  53.2143 146.5492 0001552  86.5740 239.5537 15.08796905    18
STARLINK-5109           
1 54002C 22125AQ  26081.57895833  .00045114  00000+0  28300-2 0   819
2 54002  53.2148 145.9962 0001365  82.1708 245.0382 15.08803011    15
STARLINK-5114           
1 54003C 22125AR  26081.56784722 -.00039215  00000+0 -24601-2 0   810
2 54003  53.2145 156.1108 0001329  82.6239 129.2571 15.08843453    10
STARLINK-5129           
1 54004C 22125AS  26081.53034722  .00004842  00000+0  30373-3 0   816
2 54004  53.2140 156.1616 0001393  81.9371 346.1368 15.08824344    12
STARLINK-5135           
1 54005C 22125AT  26081.60812500  .00045072  00000+0  28269-2 0   813
2 54005  53.2143 155.8498 0001479  78.6554  32.1010 15.08809367    15
STARLINK-5096           
1 54006C 22125AU  26081.65673611  .00052384  00000+0  32866-2 0   819
2 54006  53.2149 155.4847 0001348  80.9521  14.0702 15.08793063    13
STARLINK-5132           
1 54007C 22125AV  26081.51923611  .00000226  00000+0  14150-4 0   819
2 54007  53.2140 156.1741 0001091  80.4121 307.3128 15.08874905    17
STARLINK-5145           
1 54008C 22125AW  26081.49909722 -.00019583  00000+0 -12280-2 0   812
2 54008  53.2144 146.2608 0001465  89.2549 203.9930 15.08847646    14
STARLINK-5099           
1 54009C 22125AX  26081.64354167  .00050285  00000+0  31553-2 0   813
2 54009  53.2145 155.5766 0001145  81.4385 281.8350 15.08790032    18
STARLINK-5127           
1 54010C 22125AY  26081.49840278  .00008340  00000+0  52332-3 0   815
2 54010  53.2141 146.1950 0001456  83.0892 246.4204 15.08809932    18
STARLINK-5124           
1 54011C 22125AZ  26081.49284722  .00002292  00000+0  14384-3 0   817
2 54011  53.2140 146.7981 0001371  85.6278 273.3016 15.08812499    12
